CCSDS_OMM_VERS = 2.0
CREATION_DATE  = 
ORIGINATOR     = 

OBJECT_NAME    = ATLAS CENTAUR R/B
OBJECT_ID      = 1972-065B
CENTER_NAME    = EARTH
REF_FRAME      = TEME
TIME_SYSTEM    = UTC
MEAN_ELEMENT_THEORY = SGP/SGP4

EPOCH          = 2026-01-19T20:10:11.210592
MEAN_MOTION    = 14.77517674
ECCENTRICITY   = .00343633
INCLINATION    = 35.0004
RA_OF_ASC_NODE = 231.9954
ARG_OF_PERICENTER = 318.3158
MEAN_ANOMALY   = 41.4926

EPHEMERIS_TYPE = 0
CLASSIFICATION_TYPE = U
NORAD_CAT_ID   = 6155
ELEMENT_SET_NO = 999
REV_AT_EPOCH   = 83403
BSTAR          = .12911617E-3
MEAN_MOTION_DOT = .921E-5
MEAN_MOTION_DDOT = 0

CCSDS_OMM_VERS = 2.0
CREATION_DATE  = 
ORIGINATOR     = 

OBJECT_NAME    = SL-8 R/B
OBJECT_ID      = 1975-112B
CENTER_NAME    = EARTH
REF_FRAME      = TEME
TIME_SYSTEM    = UTC
MEAN_ELEMENT_THEORY = SGP/SGP4

EPOCH          = 2026-01-19T16:07:38.828352
MEAN_MOTION    = 14.38172620
ECCENTRICITY   = .00162588
INCLINATION    = 74.0611
RA_OF_ASC_NODE = 109.0875
ARG_OF_PERICENTER = 216.4250
MEAN_ANOMALY   = 143.5800

EPHEMERIS_TYPE = 0
CLASSIFICATION_TYPE = U
NORAD_CAT_ID   = 8459
ELEMENT_SET_NO = 999
REV_AT_EPOCH   = 62482
BSTAR          = .95215875E-4
MEAN_MOTION_DOT = .263E-5
MEAN_MOTION_DDOT = 0

CCSDS_OMM_VERS = 2.0
CREATION_DATE  = 
ORIGINATOR     = 

OBJECT_NAME    = SL-3 R/B
OBJECT_ID      = 1977-057B
CENTER_NAME    = EARTH
REF_FRAME      = TEME
TIME_SYSTEM    = UTC
MEAN_ELEMENT_THEORY = SGP/SGP4

EPOCH          = 2026-01-19T22:36:18.966816
MEAN_MOTION    = 15.43966522
ECCENTRICITY   = .0008563
INCLINATION    = 97.5704
RA_OF_ASC_NODE = 189.7926
ARG_OF_PERICENTER = 98.0271
MEAN_ANOMALY   = 262.1949

EPHEMERIS_TYPE = 0
CLASSIFICATION_TYPE = U
NORAD_CAT_ID   = 10114
ELEMENT_SET_NO = 999
REV_AT_EPOCH   = 66080
BSTAR          = .33555242E-3
MEAN_MOTION_DOT = .15214E-3
MEAN_MOTION_DDOT = 0

CCSDS_OMM_VERS = 2.0
CREATION_DATE  = 
ORIGINATOR     = 

OBJECT_NAME    = SEASAT 1
OBJECT_ID      = 1978-064A
CENTER_NAME    = EARTH
REF_FRAME      = TEME
TIME_SYSTEM    = UTC
MEAN_ELEMENT_THEORY = SGP/SGP4

EPOCH          = 2026-01-19T22:28:33.735648
MEAN_MOTION    = 14.46107921
ECCENTRICITY   = .00012092
INCLINATION    = 108.0164
RA_OF_ASC_NODE = 23.1826
ARG_OF_PERICENTER = 281.5105
MEAN_ANOMALY   = 78.5905

EPHEMERIS_TYPE = 0
CLASSIFICATION_TYPE = U
NORAD_CAT_ID   = 10967
ELEMENT_SET_NO = 999
REV_AT_EPOCH   = 49946
BSTAR          = .15812773E-3
MEAN_MOTION_DOT = .428E-5
MEAN_MOTION_DDOT = 0

CCSDS_OMM_VERS = 2.0
CREATION_DATE  = 
ORIGINATOR     = 

OBJECT_NAME    = SL-14 R/B
OBJECT_ID      = 1979-011B
CENTER_NAME    = EARTH
REF_FRAME      = TEME
TIME_SYSTEM    = UTC
MEAN_ELEMENT_THEORY = SGP/SGP4

EPOCH          = 2026-01-19T19:40:03.523008
MEAN_MOTION    = 14.91828824
ECCENTRICITY   = .00151763
INCLINATION    = 82.5259
RA_OF_ASC_NODE = 142.9305
ARG_OF_PERICENTER = 216.6105
MEAN_ANOMALY   = 143.4079

EPHEMERIS_TYPE = 0
CLASSIFICATION_TYPE = U
NORAD_CAT_ID   = 11267
ELEMENT_SET_NO = 999
REV_AT_EPOCH   = 52149
BSTAR          = .66269091E-4
MEAN_MOTION_DOT = .695E-5
MEAN_MOTION_DDOT = 0

CCSDS_OMM_VERS = 2.0
CREATION_DATE  = 
ORIGINATOR     = 

OBJECT_NAME    = SL-8 R/B
OBJECT_ID      = 1979-089B
CENTER_NAME    = EARTH
REF_FRAME      = TEME
TIME_SYSTEM    = UTC
MEAN_ELEMENT_THEORY = SGP/SGP4

EPOCH          = 2026-01-19T21:59:00.322080
MEAN_MOTION    = 14.42312309
ECCENTRICITY   = .00157102
INCLINATION    = 74.0680
RA_OF_ASC_NODE = 181.3207
ARG_OF_PERICENTER = 1.8576
MEAN_ANOMALY   = 358.2635

EPHEMERIS_TYPE = 0
CLASSIFICATION_TYPE = U
NORAD_CAT_ID   = 11574
ELEMENT_SET_NO = 999
REV_AT_EPOCH   = 42907
BSTAR          = .16990472E-3
MEAN_MOTION_DOT = .535E-5
MEAN_MOTION_DDOT = 0

CCSDS_OMM_VERS = 2.0
CREATION_DATE  = 
ORIGINATOR     = 

OBJECT_NAME    = SL-14 R/B
OBJECT_ID      = 1980-005B
CENTER_NAME    = EARTH
REF_FRAME      = TEME
TIME_SYSTEM    = UTC
MEAN_ELEMENT_THEORY = SGP/SGP4

EPOCH          = 2026-01-19T22:25:55.719552
MEAN_MOTION    = 14.90848183
ECCENTRICITY   = .00149685
INCLINATION    = 82.5154
RA_OF_ASC_NODE = 353.4698
ARG_OF_PERICENTER = 331.6761
MEAN_ANOMALY   = 28.3642

EPHEMERIS_TYPE = 0
CLASSIFICATION_TYPE = U
NORAD_CAT_ID   = 11672
ELEMENT_SET_NO = 999
REV_AT_EPOCH   = 46922
BSTAR          = .86713336E-4
MEAN_MOTION_DOT = .88E-5
MEAN_MOTION_DDOT = 0

CCSDS_OMM_VERS = 2.0
CREATION_DATE  = 
ORIGINATOR     = 

OBJECT_NAME    = SL-8 R/B
OBJECT_ID      = 1981-003B
CENTER_NAME    = EARTH
REF_FRAME      = TEME
TIME_SYSTEM    = UTC
MEAN_ELEMENT_THEORY = SGP/SGP4

EPOCH          = 2026-01-19T23:06:31.006368
MEAN_MOTION    = 15.08738828
ECCENTRICITY   = .02699216
INCLINATION    = 82.9396
RA_OF_ASC_NODE = 335.0149
ARG_OF_PERICENTER = 348.9273
MEAN_ANOMALY   = 10.6083

EPHEMERIS_TYPE = 0
CLASSIFICATION_TYPE = U
NORAD_CAT_ID   = 12139
ELEMENT_SET_NO = 999
REV_AT_EPOCH   = 30732
BSTAR          = .82378071E-3
MEAN_MOTION_DOT = .31055E-3
MEAN_MOTION_DDOT = 0

CCSDS_OMM_VERS = 2.0
CREATION_DATE  = 
ORIGINATOR     = 

OBJECT_NAME    = SL-3 R/B
OBJECT_ID      = 1981-046B
CENTER_NAME    = EARTH
REF_FRAME      = TEME
TIME_SYSTEM    = UTC
MEAN_ELEMENT_THEORY = SGP/SGP4

EPOCH          = 2026-01-19T23:07:38.788032
MEAN_MOTION    = 15.40520419
ECCENTRICITY   = .0019073
INCLINATION    = 81.2337
RA_OF_ASC_NODE = 348.1760
ARG_OF_PERICENTER = 183.2167
MEAN_ANOMALY   = 176.8956

EPHEMERIS_TYPE = 0
CLASSIFICATION_TYPE = U
NORAD_CAT_ID   = 12465
ELEMENT_SET_NO = 999
REV_AT_EPOCH   = 43092
BSTAR          = .33134947E-3
MEAN_MOTION_DOT = .13569E-3
MEAN_MOTION_DDOT = 0

CCSDS_OMM_VERS = 2.0
CREATION_DATE  = 
ORIGINATOR     = 

OBJECT_NAME    = SL-3 R/B
OBJECT_ID      = 1981-103B
CENTER_NAME    = EARTH
REF_FRAME      = TEME
TIME_SYSTEM    = UTC
MEAN_ELEMENT_THEORY = SGP/SGP4

EPOCH          = 2026-01-19T21:28:51.424896
MEAN_MOTION    = 15.20724193
ECCENTRICITY   = .00144329
INCLINATION    = 81.1588
RA_OF_ASC_NODE = 270.6559
ARG_OF_PERICENTER = 88.6132
MEAN_ANOMALY   = 271.6752

EPHEMERIS_TYPE = 0
CLASSIFICATION_TYPE = U
NORAD_CAT_ID   = 12904
ELEMENT_SET_NO = 999
REV_AT_EPOCH   = 96581
BSTAR          = .30658444E-3
MEAN_MOTION_DOT = .6786E-4
MEAN_MOTION_DDOT = 0

CCSDS_OMM_VERS = 2.0
CREATION_DATE  = 
ORIGINATOR     = 

OBJECT_NAME    = SL-3 R/B
OBJECT_ID      = 1982-013B
CENTER_NAME    = EARTH
REF_FRAME      = TEME
TIME_SYSTEM    = UTC
MEAN_ELEMENT_THEORY = SGP/SGP4

EPOCH          = 2026-01-19T23:45:55.630080
MEAN_MOTION    = 15.21441307
ECCENTRICITY   = .00225852
INCLINATION    = 81.1719
RA_OF_ASC_NODE = 217.8238
ARG_OF_PERICENTER = 346.3005
MEAN_ANOMALY   = 13.7611

EPHEMERIS_TYPE = 0
CLASSIFICATION_TYPE = U
NORAD_CAT_ID   = 13068
ELEMENT_SET_NO = 999
REV_AT_EPOCH   = 39694
BSTAR          = .20345248E-3
MEAN_MOTION_DOT = .4625E-4
MEAN_MOTION_DDOT = 0

CCSDS_OMM_VERS = 2.0
CREATION_DATE  = 
ORIGINATOR     = 

OBJECT_NAME    = SL-3 R/B
OBJECT_ID      = 1982-039B
CENTER_NAME    = EARTH
REF_FRAME      = TEME
TIME_SYSTEM    = UTC
MEAN_ELEMENT_THEORY = SGP/SGP4

EPOCH          = 2026-01-19T22:47:36.547584
MEAN_MOTION    = 15.09771153
ECCENTRICITY   = .00299876
INCLINATION    = 81.1667
RA_OF_ASC_NODE = 272.1254
ARG_OF_PERICENTER = 123.9608
MEAN_ANOMALY   = 236.4475

EPHEMERIS_TYPE = 0
CLASSIFICATION_TYPE = U
NORAD_CAT_ID   = 13154
ELEMENT_SET_NO = 999
REV_AT_EPOCH   = 37428
BSTAR          = .2014382E-3
MEAN_MOTION_DOT = .3309E-4
MEAN_MOTION_DDOT = 0

