ATLAS CENTAUR R/B       
1 06155U 72065B   26019.84040753  .00000921  00000+0  12912-3 0  9995
2 06155  35.0004 231.9954 0034363 318.3158  41.4926 14.77517674834035
SL-8 R/B                
1 08459U 75112B   26019.67197718  .00000263  00000+0  95216-4 0  9993
2 08459  74.0611 109.0875 0016258 216.4250 143.5800 14.38172620624826
SL-3 R/B                
1 10114U 77057B   26019.94188619  .00015214  00000+0  33555-3 0  9993
2 10114  97.5704 189.7926 0008563  98.0271 262.1949 15.43966522660808
SEASAT 1                
1 10967U 78064A   26019.93650157  .00000428  00000+0  15813-3 0  9996
2 10967 108.0164  23.1826 0001209 281.5105  78.5905 14.46107921499462
SL-14 R/B               
1 11267U 79011B   26019.81948522  .00000695  00000+0  66269-4 0  9994
2 11267  82.5259 142.9305 0015176 216.6105 143.4079 14.91828824521491
SL-8 R/B                
1 11574U 79089B   26019.91597595  .00000535  00000+0  16990-3 0  9999
2 11574  74.0680 181.3207 0015710   1.8576 358.2635 14.42312309429071
SL-14 R/B               
1 11672U 80005B   26019.93467268  .00000880  00000+0  86713-4 0  9997
2 11672  82.5154 353.4698 0014968 331.6761  28.3642 14.90848183469221
SL-8 R/B                
1 12139U 81003B   26019.96285887  .00031055  00000+0  82378-3 0  9993
2 12139  82.9396 335.0149 0269921 348.9273  10.6083 15.08738828307328
SL-3 R/B                
1 12465U 81046B   26019.96364338  .00013569  00000+0  33135-3 0  9998
2 12465  81.2337 348.1760 0019073 183.2167 176.8956 15.40520419430922
SL-3 R/B                
1 12904U 81103B   26019.89503964  .00006786  00000+0  30658-3 0  9992
2 12904  81.1588 270.6559 0014432  88.6132 271.6752 15.20724193965818
SL-3 R/B                
1 13068U 82013B   26019.99022720  .00004625  00000+0  20345-3 0  9994
2 13068  81.1719 217.8238 0022585 346.3005  13.7611 15.21441307396949
SL-3 R/B                
1 13154U 82039B   26019.94972856  .00003309  00000+0  20144-3 0  9992
2 13154  81.1667 272.1254 0029987 123.9608 236.4475 15.09771153374286
